{"type": "FeatureCollection", "features": [{"type": "Feature", "properties": {"norad_id": 2807, "name": "OPS 7218 (TRANSIT 16)", "group": "nnss", "lat": -6.978502901894283, "lon": 173.59048289900835, "alt_km": 1079.0688345943954, "timestamp": "2025-12-26T18:39:32.548744+00:00", "meta": {"OBJECT_NAME": "OPS 7218 (TRANSIT 16)", "OBJECT_ID": "1967-048A", "EPOCH": "2025-12-26T12:58:24.710592", "MEAN_MOTION": 13.50725086, "ECCENTRICITY": 0.00221293, "INCLINATION": 89.6735, "RA_OF_ASC_NODE": 353.5583, "ARG_OF_PERICENTER": 77.3586, "MEAN_ANOMALY": 38.0175, "EPHEMERIS_TYPE": 0, "CLASSIFICATION_TYPE": "U", "NORAD_CAT_ID": 2807, "ELEMENT_SET_NO": 999, "REV_AT_EPOCH": 88462, "BSTAR": 0.00015200412, "MEAN_MOTION_DOT": 1.08e-06, "MEAN_MOTION_DDOT": 0}, "tle": {"line1": "1 02807U 67048A   25360.54056378  .00000108  00000+0  15200-3 0  9995", "line2": "2 02807  89.6735 353.5583 0022129  77.3586  38.0175 13.50725086884620"}}, "geometry": {"type": "Point", "coordinates": [173.59048289900835, -6.978502901894283]}}, {"type": "Feature", "properties": {"norad_id": 2965, "name": "OPS 4947 (TRANSIT 17)", "group": "nnss", "lat": 28.74736417469088, "lon": 23.77678491011258, "alt_km": 1092.0330174221417, "timestamp": "2025-12-26T18:39:32.548766+00:00", "meta": {"OBJECT_NAME": "OPS 4947 (TRANSIT 17)", "OBJECT_ID": "1967-092A", "EPOCH": "2025-12-26T12:00:14.585184", "MEAN_MOTION": 13.53457189, "ECCENTRICITY": 0.00472456, "INCLINATION": 89.2485, "RA_OF_ASC_NODE": 23.3854, "ARG_OF_PERICENTER": 193.7634, "MEAN_ANOMALY": 284.9504, "EPHEMERIS_TYPE": 0, "CLASSIFICATION_TYPE": "U", "NORAD_CAT_ID": 2965, "ELEMENT_SET_NO": 999, "REV_AT_EPOCH": 87283, "BSTAR": 0.00018791726, "MEAN_MOTION_DOT": 1.39e-06, "MEAN_MOTION_DDOT": 0}, "tle": {"line1": "1 02965U 67092A   25360.50016881  .00000139  00000+0  18792-3 0  9993", "line2": "2 02965  89.2485  23.3854 0047245 193.7634 284.9504 13.53457189872836"}}, "geometry": {"type": "Point", "coordinates": [23.77678491011258, 28.74736417469088]}}, {"type": "Feature", "properties": {"norad_id": 3133, "name": "OPS 7034 (TRANSIT 18)", "group": "nnss", "lat": 82.22555986214276, "lon": -86.5298729769671, "alt_km": 1020.5072627822401, "timestamp": "2025-12-26T18:39:32.548779+00:00", "meta": {"OBJECT_NAME": "OPS 7034 (TRANSIT 18)", "OBJECT_ID": "1968-012A", "EPOCH": "2025-12-26T11:59:50.647200", "MEAN_MOTION": 13.51568974, "ECCENTRICITY": 0.00750778, "INCLINATION": 90.0285, "RA_OF_ASC_NODE": 273.6782, "ARG_OF_PERICENTER": 129.6479, "MEAN_ANOMALY": 43.4693, "EPHEMERIS_TYPE": 0, "CLASSIFICATION_TYPE": "U", "NORAD_CAT_ID": 3133, "ELEMENT_SET_NO": 999, "REV_AT_EPOCH": 57104, "BSTAR": 0.0002102239, "MEAN_MOTION_DOT": 1.49e-06, "MEAN_MOTION_DDOT": 0}, "tle": {"line1": "1 03133U 68012A   25360.49989175  .00000149  00000+0  21022-3 0  9998", "line2": "2 03133  90.0285 273.6782 0075077 129.6479  43.4693 13.51568974571040"}}, "geometry": {"type": "Point", "coordinates": [-86.5298729769671, 82.22555986214276]}}, {"type": "Feature", "properties": {"norad_id": 4507, "name": "NNSS 19 (TRANSIT 19)", "group": "nnss", "lat": 42.550501139958875, "lon": -125.46095209371258, "alt_km": 1173.582891414182, "timestamp": "2025-12-26T18:39:32.548791+00:00", "meta": {"OBJECT_NAME": "NNSS 19 (TRANSIT 19)", "OBJECT_ID": "1970-067A", "EPOCH": "2025-12-26T14:53:26.025504", "MEAN_MOTION": 13.51317911, "ECCENTRICITY": 0.01702285, "INCLINATION": 90.0046, "RA_OF_ASC_NODE": 234.5432, "ARG_OF_PERICENTER": 252.7431, "MEAN_ANOMALY": 105.5031, "EPHEMERIS_TYPE": 0, "CLASSIFICATION_TYPE": "U", "NORAD_CAT_ID": 4507, "ELEMENT_SET_NO": 999, "REV_AT_EPOCH": 72409, "BSTAR": 0.00012342107, "MEAN_MOTION_DOT": 9.5e-07, "MEAN_MOTION_DDOT": 0}, "tle": {"line1": "1 04507U 70067A   25360.62044011  .00000095  00000+0  12342-3 0  9998", "line2": "2 04507  90.0046 234.5432 0170228 252.7431 105.5031 13.51317911724093"}}, "geometry": {"type": "Point", "coordinates": [-125.46095209371258, 42.550501139958875]}}, {"type": "Feature", "properties": {"norad_id": 6909, "name": "NNSS 20 (TRANSIT 20)", "group": "nnss", "lat": 50.079820641847206, "lon": -104.98382393729872, "alt_km": 877.883386984854, "timestamp": "2025-12-26T18:39:32.548802+00:00", "meta": {"OBJECT_NAME": "NNSS 20 (TRANSIT 20)", "OBJECT_ID": "1973-081A", "EPOCH": "2025-12-26T04:24:52.750368", "MEAN_MOTION": 13.7144138, "ECCENTRICITY": 0.01560589, "INCLINATION": 89.8559, "RA_OF_ASC_NODE": 254.8528, "ARG_OF_PERICENTER": 38.4618, "MEAN_ANOMALY": 322.7546, "EPHEMERIS_TYPE": 0, "CLASSIFICATION_TYPE": "U", "NORAD_CAT_ID": 6909, "ELEMENT_SET_NO": 999, "REV_AT_EPOCH": 80545, "BSTAR": 0.0002770545, "MEAN_MOTION_DOT": 2.83e-06, "MEAN_MOTION_DDOT": 0}, "tle": {"line1": "1 06909U 73081A   25360.18394387  .00000283  00000+0  27705-3 0  9998", "line2": "2 06909  89.8559 254.8528 0156058  38.4618 322.7546 13.71441380805452"}}, "geometry": {"type": "Point", "coordinates": [-104.98382393729872, 50.079820641847206]}}, {"type": "Feature", "properties": {"norad_id": 10457, "name": "TRANSAT", "group": "nnss", "lat": -72.85504019212391, "lon": 76.95586653554957, "alt_km": 1098.1275170754016, "timestamp": "2025-12-26T18:39:32.548812+00:00", "meta": {"OBJECT_NAME": "TRANSAT", "OBJECT_ID": "1977-106A", "EPOCH": "2025-12-26T11:57:15.611040", "MEAN_MOTION": 13.48945735, "ECCENTRICITY": 0.00266157, "INCLINATION": 89.6474, "RA_OF_ASC_NODE": 78.1095, "ARG_OF_PERICENTER": 150.6072, "MEAN_ANOMALY": 220.5279, "EPHEMERIS_TYPE": 0, "CLASSIFICATION_TYPE": "U", "NORAD_CAT_ID": 10457, "ELEMENT_SET_NO": 999, "REV_AT_EPOCH": 36929, "BSTAR": 0.00012243214, "MEAN_MOTION_DOT": 8.7e-07, "MEAN_MOTION_DDOT": 0}, "tle": {"line1": "1 10457U 77106A   25360.49809735  .00000087  00000+0  12243-3 0  9998", "line2": "2 10457  89.6474  78.1095 0026615 150.6072 220.5279 13.48945735369293"}}, "geometry": {"type": "Point", "coordinates": [76.95586653554957, -72.85504019212391]}}, {"type": "Feature", "properties": {"norad_id": 12458, "name": "NOVA 1", "group": "nnss", "lat": -27.0361267060021, "lon": 91.11141272277952, "alt_km": 1179.2021511941475, "timestamp": "2025-12-26T18:39:32.548823+00:00", "meta": {"OBJECT_NAME": "NOVA 1", "OBJECT_ID": "1981-044A", "EPOCH": "2025-12-26T06:21:41.464800", "MEAN_MOTION": 13.23279972, "ECCENTRICITY": 0.00156868, "INCLINATION": 89.8525, "RA_OF_ASC_NODE": 91.194, "ARG_OF_PERICENTER": 70.7289, "MEAN_ANOMALY": 342.9728, "EPHEMERIS_TYPE": 0, "CLASSIFICATION_TYPE": "U", "NORAD_CAT_ID": 12458, "ELEMENT_SET_NO": 999, "REV_AT_EPOCH": 15365, "BSTAR": 0.00011734721, "MEAN_MOTION_DOT": 5.9e-07, "MEAN_MOTION_DDOT": 0}, "tle": {"line1": "1 12458U 81044A   25360.26506325  .00000059  00000+0  11735-3 0  9995", "line2": "2 12458  89.8525  91.1940 0015686  70.7289 342.9728 13.23279972153652"}}, "geometry": {"type": "Point", "coordinates": [91.11141272277952, -27.0361267060021]}}, {"type": "Feature", "properties": {"norad_id": 15362, "name": "NOVA 3", "group": "nnss", "lat": -13.904657150216206, "lon": -99.33043961648201, "alt_km": 1180.5816363523882, "timestamp": "2025-12-26T18:39:32.548833+00:00", "meta": {"OBJECT_NAME": "NOVA 3", "OBJECT_ID": "1984-110A", "EPOCH": "2025-12-26T12:17:22.808256", "MEAN_MOTION": 13.23046399, "ECCENTRICITY": 0.0029843, "INCLINATION": 90.1217, "RA_OF_ASC_NODE": 80.6966, "ARG_OF_PERICENTER": 292.1662, "MEAN_ANOMALY": 78.6503, "EPHEMERIS_TYPE": 0, "CLASSIFICATION_TYPE": "U", "NORAD_CAT_ID": 15362, "ELEMENT_SET_NO": 999, "REV_AT_EPOCH": 98881, "BSTAR": 0.00016271828, "MEAN_MOTION_DOT": 7.7e-07, "MEAN_MOTION_DDOT": 0}, "tle": {"line1": "1 15362U 84110A   25360.51206954  .00000077  00000+0  16272-3 0  9993", "line2": "2 15362  90.1217  80.6966 0029843 292.1662  78.6503 13.23046399988811"}}, "geometry": {"type": "Point", "coordinates": [-99.33043961648201, -13.904657150216206]}}, {"type": "Feature", "properties": {"norad_id": 15935, "name": "OSCAR 30", "group": "nnss", "lat": -33.16560677271715, "lon": -80.03156019470235, "alt_km": 1254.0303342222142, "timestamp": "2025-12-26T18:39:32.548844+00:00", "meta": {"OBJECT_NAME": "OSCAR 30", "OBJECT_ID": "1985-066A", "EPOCH": "2025-12-26T12:16:16.519584", "MEAN_MOTION": 13.36080624, "ECCENTRICITY": 0.01687622, "INCLINATION": 90.1653, "RA_OF_ASC_NODE": 100.0722, "ARG_OF_PERICENTER": 45.4025, "MEAN_ANOMALY": 327.8317, "EPHEMERIS_TYPE": 0, "CLASSIFICATION_TYPE": "U", "NORAD_CAT_ID": 15935, "ELEMENT_SET_NO": 999, "REV_AT_EPOCH": 96637, "BSTAR": 0.00016463637, "MEAN_MOTION_DOT": 1.01e-06, "MEAN_MOTION_DDOT": 0}, "tle": {"line1": "1 15935U 85066A   25360.51130231  .00000101  00000+0  16464-3 0  9995", "line2": "2 15935  90.1653 100.0722 0168762  45.4025 327.8317 13.36080624966376"}}, "geometry": {"type": "Point", "coordinates": [-80.03156019470235, -33.16560677271715]}}, {"type": "Feature", "properties": {"norad_id": 15936, "name": "OSCAR 24", "group": "nnss", "lat": -80.670024713861, "lon": 93.64447797179467, "alt_km": 1215.6244204379218, "timestamp": "2025-12-26T18:39:32.548854+00:00", "meta": {"OBJECT_NAME": "OSCAR 24", "OBJECT_ID": "1985-066B", "EPOCH": "2025-12-26T11:55:31.117152", "MEAN_MOTION": 13.35937803, "ECCENTRICITY": 0.01699445, "INCLINATION": 90.1791, "RA_OF_ASC_NODE": 92.5487, "ARG_OF_PERICENTER": 51.8962, "MEAN_ANOMALY": 320.3324, "EPHEMERIS_TYPE": 0, "CLASSIFICATION_TYPE": "U", "NORAD_CAT_ID": 15936, "ELEMENT_SET_NO": 999, "REV_AT_EPOCH": 96827, "BSTAR": 0.00014615642, "MEAN_MOTION_DOT": 9.1e-07, "MEAN_MOTION_DDOT": 0}, "tle": {"line1": "1 15936U 85066B   25360.49688793  .00000091  00000+0  14616-3 0  9999", "line2": "2 15936  90.1791  92.5487 0169944  51.8962 320.3324 13.35937803968273"}}, "geometry": {"type": "Point", "coordinates": [93.64447797179467, -80.670024713861]}}]}